LEMUR-2-AMANDA-SVANTE   
1 48269U 21034B   26068.77637527  .00030872  00000+0  11134-2 0  9996
2 48269  97.5829 144.8625 0002703 205.4721 154.6385 15.28469003265849
STARLINK-33909          
1 63804U 25092A   26068.32277394  .00037012  00000+0  13471-2 0  9998
2 63804  42.9960 175.0437 0001468 151.3355 208.7577 15.27595619 48550
